0 TIANTUO 1
1 38258U 12021B   13282.18882209  .00014073  00000-0  30640-3 0  5746
2 38258 097.2957 053.4887 0001992 211.7555 270.1989 15.44395074 79429
0 TIANTUO 1
1 38258U 12021B   13282.50249503  .00014389  00000-0  31312-3 0  5754
2 38258 097.2962 053.8032 0001980 213.3733 211.4189 15.44405915 79475
0 TIANTUO 1
1 38258U 12021B   13282.77339792  .00037450  00000-0  80775-3 0  5765
2 38258 097.2976 054.0807 0001799 207.2104 282.9097 15.44472149 79514
0 TIANTUO 1
1 38258U 12021B   13283.02925756  .00024308  00000-0  52586-3 0  5773
2 38258 097.2976 054.3365 0002060 199.6105 272.1695 15.44470574 79552
0 TIANTUO 1
1 38258U 12021B   13283.15919103  .00025575  00000-0  55289-3 0  5787
2 38258 097.2984 054.4644 0002651 199.1514 274.6088 15.44479437 79579
0 TIANTUO 1
1 38258U 12021B   13283.33799486  .00029234  00000-0  63110-3 0  5796
2 38258 097.2986 054.6435 0002545 198.0382 189.2539 15.44495064 79604
0 TIANTUO 1
1 38258U 12021B   13283.65706241  .00022139  00000-0  47861-3 0  5790
2 38258 097.2979 054.9618 0002656 202.8552 157.3102 15.44489441 79657
0 TIANTUO 1
1 38258U 12021B   13283.67996163  .00027791  00000-0  59981-3 0  5803
2 38258 097.2988 054.9865 0002616 198.5743 288.8765 15.44511433 79652
0 TIANTUO 1
1 38258U 12021B   13283.87308425  .00028303  00000-0  61054-3 0  5818
2 38258 097.2975 055.1784 0002549 198.9319 281.6301 15.44523572 79686
0 TIANTUO 1
1 38258U 12021B   13284.19730446  .00025694  00000-0  55444-3 0  5823
2 38258 097.2977 055.5048 0002549 193.8299 288.3027 15.44534001 79730
0 TIANTUO 1
1 38258U 12021B   13284.44123712  .00026180  00000-0  56458-3 0  5831
2 38258 097.2976 055.7502 0002585 193.8287 203.7699 15.44548093 79779
0 TIANTUO 1
1 38258U 12021B   13285.48330880  .00024849  00000-0  53518-3 0  5869
2 38258 097.2967 056.7968 0002563 188.6180 239.5723 15.44596035 79938
0 TIANTUO 1
1 38258U 12021B   13285.82406387  .00024257  00000-0  52229-3 0  5875
2 38258 097.2966 057.1389 0002191 197.1205 324.6098 15.44610192 79986
0 TIANTUO 1
1 38258U 12021B   13286.20529057  .00023548  00000-0  50687-3 0  5887
2 38258 097.2962 057.5220 0002360 192.4876 287.7016 15.44624780 80046
0 TIANTUO 1
1 38258U 12021B   13286.51895067  .00023410  00000-0  50367-3 0  5892
2 38258 097.2964 057.8369 0002382 189.9625 233.2439 15.44638691 80098
0 TIANTUO 1
1 38258U 12021B   13286.85939707  .00023280  00000-0  50064-3 0  5900
2 38258 097.2962 058.1785 0002354 190.4353 324.6574 15.44653799 80143
0 TIANTUO 1
1 38258U 12021B   13287.17769913  .00022918  00000-0  49270-3 0  5911
2 38258 097.2961 058.4983 0002397 188.1466 295.7835 15.44666166 80196
0 TIANTUO 1
1 38258U 12021B   13287.42134600  .00022914  00000-0  49242-3 0  5924
2 38258 097.2961 058.7430 0002379 187.0091 210.9097 15.44677268 80237
0 TIANTUO 1
1 38258U 12021B   13287.82950007  .00022952  00000-0  49292-3 0  5933
2 38258 097.2961 059.1531 0002407 185.1165 321.0104 15.44696180 80290
0 TIANTUO 1
1 38258U 12021B   13288.12649306  .00022789  00000-0  48923-3 0  5943
2 38258 097.2956 059.4499 0002737 184.8870 171.7190 15.44709252 80330
0 TIANTUO 1
1 38258U 12021B   13288.39991851  .00022761  00000-0  48843-3 0  5959
2 38258 097.2960 059.7245 0002576 184.1887 251.9348 15.44721773 80382
0 TIANTUO 1
1 38258U 12021B   13288.66681025  .00022918  00000-0  49154-3 0  5969
2 38258 097.2959 059.9930 0002671 184.2657 295.0853 15.44735169 80424
0 TIANTUO 1
1 38258U 12021B   13289.05011591  .00023409  00000-0  50165-3 0  5979
2 38258 097.2957 060.3780 0002568 181.2352 268.3327 15.44756288 80485
0 TIANTUO 1
1 38258U 12021B   13289.43755304  .00024097  00000-0  51588-3 0  5983
2 38258 097.2956 060.7677 0002859 183.6697 259.1107 15.44778905 80545
0 TIANTUO 1
1 38258U 12021B   13289.76561725  .00024417  00000-0  52237-3 0  5990
2 38258 097.2953 061.0966 0003023 182.0349 284.0042 15.44796765 80592
0 TIANTUO 1
1 38258U 12021B   13290.08619155  .00025125  00000-0  53706-3 0  6000
2 38258 097.2959 061.4197 0002751 174.4648 273.2312 15.44816484 80649
0 TIANTUO 1
1 38258U 12021B   13290.39996957  .00025934  00000-0  55385-3 0  6016
2 38258 097.2956 061.7343 0002963 176.9082 214.6994 15.44836743 80696
0 TIANTUO 1
1 38258U 12021B   13290.67464606  .00026054  00000-0  55611-3 0  6025
2 38258 097.2956 062.0102 0002948 175.8502 302.3566 15.44851675 80737
0 TIANTUO 1
1 38258U 12021B   13291.05153521  .00026301  00000-0  56095-3 0  6032
2 38258 097.2959 062.3891 0002819 173.4719 239.4368 15.44872686 80790
0 TIANTUO 1
1 38258U 12021B   13291.43803669  .00026521  00000-0  56520-3 0  6047
2 38258 097.2960 062.7772 0002792 174.0936 226.9721 15.44894340 80854
0 TIANTUO 1
1 38258U 12021B   13291.77844478  .00026707  00000-0  56877-3 0  6059
2 38258 097.2961 063.1193 0002973 171.6048 321.4591 15.44913416 80903
0 TIANTUO 1
1 38258U 12021B   13292.08822862  .00026726  00000-0  56885-3 0  6068
2 38258 097.2963 063.4308 0002998 170.0098 244.8537 15.44929728 80957
0 TIANTUO 1
1 38258U 12021B   13292.41560756  .00026726  00000-0  56852-3 0  6071
2 38258 097.2964 063.7595 0002996 168.4657 266.0148 15.44947179 81000
0 TIANTUO 1
1 38258U 12021B   13292.68389248  .00026597  00000-0  56554-3 0  6081
2 38258 097.2965 064.0292 0002910 168.3322 317.3218 15.44960542 81044
0 TIANTUO 1
1 38258U 12021B   13293.06949131  .00026463  00000-0  56233-3 0  6094
2 38258 097.2967 064.4164 0002908 168.0586 300.8468 15.44980095 81100
0 TIANTUO 1
1 38258U 12021B   13293.45143381  .00026398  00000-0  56059-3 0  6105
2 38258 097.2970 064.8004 0002974 167.1086 264.7567 15.44999938 81169
0 TIANTUO 1
1 38258U 12021B   13293.78677942  .00026376  00000-0  55978-3 0  6112
2 38258 097.2973 065.1374 0002970 165.9561 329.8910 15.45017507 81211
0 TIANTUO 1
1 38258U 12021B   13294.10154346  .00026434  00000-0  56069-3 0  6125
2 38258 097.2976 065.4547 0003038 163.3218 282.1249 15.45034126 81263
0 TIANTUO 1
1 38258U 12021B   13294.42528567  .00026369  00000-0  55900-3 0  6131
2 38258 097.2973 065.7802 0002971 161.6658 283.3045 15.45050886 81315
0 TIANTUO 1
1 38258U 12021B   13294.69144075  .00026300  00000-0  55729-3 0  6143
2 38258 097.2974 066.0476 0002894 160.8405 323.5680 15.45064458 81358
0 TIANTUO 1
1 38258U 12021B   13295.07807753  .00026158  00000-0  55394-3 0  6155
2 38258 097.2976 066.4363 0002969 160.3955 313.1775 15.45083680 81412
0 TIANTUO 1
1 38258U 12021B   13295.39680027  .00026105  00000-0  55252-3 0  6169
2 38258 097.2976 066.7566 0002993 159.9038 285.3499 15.45100100 81468
0 TIANTUO 1
1 38258U 12021B   13295.72646329  .00026036  00000-0  55076-3 0  6171
2 38258 097.2977 067.0878 0002991 158.7257 319.0407 15.45116904 81516
0 TIANTUO 1
1 38258U 12021B   13296.10422005  .00025912  00000-0  54780-3 0  6181
2 38258 097.2979 067.4675 0003011 157.8749 259.7653 15.45135523 81574
